ONEWEB-0020             
1 45133U 20008C   25328.56079794 -.00000431  00000+0 -12703-2 0  9997
2 45133  87.8812  77.0522 0001539  98.8667 261.2635 13.10370957281548
ONEWEB-0021             
1 45134U 20008D   25328.34666684 -.00000536  00000+0 -15711-2 0  9992
2 45134  87.8806  77.1245 0001798 106.3452 253.7873 13.10375733281827
ONEWEB-0023             
1 45136U 20008F   25328.66289821 -.00000018  00000+0 -88881-4 0  9998
2 45136  87.8800  77.0423 0001490 110.1156 250.0132 13.10376253281290
ONEWEB-0024             
1 45137U 20008G   25328.71185858 -.00000493  00000+0 -14474-2 0  9992
2 45137  87.8824  76.9994 0001765 102.8983 257.2341 13.10370209281464
ONEWEB-0025             
1 45138U 20008H   25328.57657225 -.00000429  00000+0 -12665-2 0  9998
2 45138  87.8819  77.0321 0001722 113.0968 247.0341 13.10375468281778
ONEWEB-0026             
1 45139U 20008J   25328.68321398 -.00000386  00000+0 -11242-2 0  9992
2 45139  87.8867  61.7875 0001741  97.0318 263.1008 13.11417575284305
ONEWEB-0028             
1 45140U 20008K   25328.71628683  .00000531  00000+0  14629-2 0  9997
2 45140  87.8855  61.7975 0002051 124.1843 235.9479 13.11414872281825
ONEWEB-0032             
1 45141U 20008L   25328.66871492  .00000353  00000+0  97473-3 0  9991
2 45141  87.8805  77.0434 0001723 109.5356 250.5957 13.10374084281511
